#dP2021  7 26  0  0  0.00000000     289 d+D   IGb14 FIT AIUB
## 2168  86400.00000000   300.00000000 59421 0.0000000000000
+  117   G01G02G03G04G05G06G07G08G09G10G11G12G13G14G15G16G17
+        G18G19G20G21G22G23G24G25G26G27G28G29G30G31G32R01R02
+        R03R04R05R07R08R09R11R12R13R14R15R16R17R18R19R20R21
+        R22R24E01E02E03E04E05E07E08E09E11E12E13E14E15E18E19
+        E21E24E25E26E27E30E31E33E36C06C07C08C09C10C11C12C13
+        C14C16C19C20C21C22C23C24C25C26C27C28C29C30C32C33C34
+        C35C36C37C38C39C40C41C42C43C44C45C46J01J02J03  0  0
++         5  5  5  5  5  5  5  6  5  5  5  5  5  5  5  5  5
++         5  5  5  5  5  5  5  5  5  5  5  5  5  5  5  5  5
++         5  5  5  5  5  5  5  5  5  5  5  5  5  5  5  5  5
++         5  5  5  5  5  5  5  5  5  5  5  5  5  5  5  5  5
++         5  5  5  5  5  5  5  5  5  5  5  5  5  5  5  5  5
++         7  5  5  5  5  5  5  5  5  5  5  5  5  5  5  5  5
++         5  5  5  5  5  5  5  5  5  5  5  5  6  5  5  0  0
%c M  cc GPS ccc cccc cccc cccc cccc ccccc ccccc ccccc ccccc
%c cc cc ccc ccc cccc cccc cccc cccc ccccc ccccc ccccc ccccc
%f  1.2500000  1.025000000  0.00000000000  0.000000000000000
%f  0.0000000  0.000000000  0.00000000000  0.000000000000000
%i    0    0    0    0      0      0      0      0         0
%i    0    0    0    0      0      0      0      0         0
/* Center for Orbit Determination in Europe (CODE)                              
/* MGEX orbits and clocks for year-day 2021-2070                                
/* Middle day of a 3-day long-arc multi-GNSS solution                           
/* Systems considered: GPS/GLONASS/Galileo/BeiDou/QZSS                          
/* Product reference - DOI 10.7892/boris.75882.3                                
/* PCV:IGS14      OL/AL:FES2014b NONE     YN ORB:CoN CLK:CoN                    
*  2021  7 26 17  5  0.00000000
PG01  20810.364757  14278.497106  -9085.799485    616.449235
PG02   1359.927085 -15588.281859  22112.114262   -622.236178
PG03  12038.668239  20298.395832  12199.569885   -232.903506
PG04  13116.995339   8728.049839  21398.353039   -203.060292
PG05  -6577.432626 -25599.712382  -1514.389824    -49.118615
PG06  13742.855738  -9594.203160  20673.409973     45.952032
PG07  25654.472598   6078.603825  -4592.112233    211.308072
PG08   3380.166890  16084.397810 -20809.512286    -30.239578
PG09  20591.585657  -2316.699323  16568.047133   -356.872147
PG10 -12636.746172  10288.729107 -20798.635622   -169.846253
PG11   2847.508271 -15225.343994  21559.614288     23.983367
PG12 -10284.751193 -21385.515764  11817.077413    -74.066943
PG13   5895.540933 -18536.686094 -18155.809828    162.864235
PG14  13178.091267 -10594.868703 -20477.354789     38.218602
PG15  -6046.960823 -16022.485349 -20603.165470   -132.800263
PG16   -587.889943  25955.056862   4046.089270   -363.441842
PG17  22629.242652 -13002.071301  -4512.074391    479.757913
PG18 -25119.150078  -4016.827159  -7795.261185    338.085054
PG19  20293.200390 -16563.330338   3604.587317     31.418155
PG20    101.689525 -24438.621036  10684.619302    519.984215
PG21  15810.869871  15175.322200 -14660.982356    133.600749
PG22  10468.687400  24091.343460   4794.807929   -553.854445
PG23 -15603.475974  -2445.457442 -21385.446745     79.283377
PG24 -17827.112014 -15189.336961 -13148.340058    188.182525
PG25 -15194.365667 -11074.033573  18601.121736    180.321660
PG26  -6186.820581  21123.053042  14608.583692    115.250426
PG27  -7165.566807  20027.099882 -15849.311999   -168.867872
PG28  10485.063220 -16754.264755 -17288.496146    531.058856
PG29 -19642.443815   -479.317928  17850.673962   -386.401241
PG30  21405.476699  -3753.910075 -15357.898536   -455.233722
PG31 -12579.966032  10815.968749  20744.195464   -130.807625
PG32 -21107.111000  15772.189808  -2367.749743     11.842170
PR01 -11648.458774   -208.922023 -22692.223364     82.870334
PR02 -13484.386999  18710.514924 -10790.422755    487.479913
PR03  -6528.022073  23742.914238   6599.461992     40.199184
PR04   3760.130062  15299.772612  20086.240754     97.527279
PR05  12071.168835  -1593.542268  22428.605600     76.025358
PR07   6272.091086 -23692.985173  -7113.213396    -41.900231
PR08  -3857.377548 -15317.403097 -19981.078091    -60.116765
PR09   8575.606797  -7329.708391 -22855.593371      4.893269
PR11 -15672.732485 -20112.037709   -336.343714     45.116745
PR12 -17106.431612  -9280.087417  16529.978025    248.498390
PR13  -8851.558409   6542.145199  23001.478434    -58.301515
PR14   5163.226652  19268.786073  15927.357931     66.922443
PR15  15591.527550  20191.433744   -192.366642    102.457439
PR16  17068.504726   7739.641183 -17254.462051    -18.527037
PR17  -5571.411487  10936.409617 -22366.971437    444.412075
PR18  12721.744435   7843.419183 -20677.960081     84.760600
PR19  23852.185594   1735.107291  -8867.434606   -153.026265
PR20  21902.394011  -6954.568791  11110.822547    -53.120287
PR21   4156.573104 -10804.025343  22718.389773   -226.811288
PR22 -13525.674662  -7554.857367  20213.023430   -124.662124
PR24 -21323.217337   7805.870809 -11631.624883     52.008302
PE01   2340.165574 -24898.065348 -15828.097093  -1158.357160
PE02  -2251.313214  24965.416574  15739.509356    235.603775
PE03 -13045.615935  25146.754047   8611.895898   -456.892877
PE04  -3987.769314 -19441.580226 -21952.315783   -821.630360
PE05 -22690.426485  16161.825346 -10009.013323   -262.151272
PE07  19003.800528   2150.328418  22597.436781   -566.313020
PE08   4286.200894  19125.981089  22189.873452   5964.147400
PE09 -19018.927872  -1757.663349 -22612.285069   5587.303450
PE11 -28350.218900  -7423.953755   4109.574792   5665.603340
PE12 -14164.109755 -15938.881983  20516.712749   5091.671810
PE13  28238.255843   7603.753925  -4586.649859    419.509129
PE14  17911.475100  10625.911894 -23282.446477  -1513.765320
PE15  14259.867038  15829.268678 -20550.721941    801.386391
PE18 -22376.679219   2976.254048  12827.500361  -1659.470210
PE19  14780.971892 -24801.001841  -6519.518310    336.584874
PE21  14260.591597  -8904.010664 -24356.937963   -678.436304
PE24 -18391.856302 -13928.240322  18548.451315  -1028.931810
PE25 -14366.855928   8680.716811  24391.572361   -541.230681
PE26  25061.857429  -5625.098125  14700.898983   1534.198290
PE27  18494.469762  12926.011587 -19147.911941    -84.178212
PE30  11090.640558  27386.960672  -1696.861147   2752.601320
PE31 -11841.557888 -26988.489208   2747.557900   -483.692368
PE33   8082.580584 -14713.786773  24375.810405   -467.139160
PE36 -25556.410051   5082.305541 -14045.351229   -239.774920
PC06 -21900.190982  27156.470257  23818.403808    674.658843
PC07 -12574.133824  38445.091478  13134.554036     79.090197
PC08  -7173.598134  20692.986981 -35871.313823   -910.248911
PC09  -7362.099830  26730.470950  31961.257920    344.286656
PC10  -3469.194844  42242.764150   2099.664702    -14.820997
PC11 -22473.144686  13345.877087  -9788.110717    480.494689
PC12 -26671.223011   2881.739566   7765.701228    799.861859
PC13   5977.150562  28140.122063 -30642.342626    350.844830
PC14 -13904.638112  19973.517064 -13686.854018    772.484700
PC16 -20481.569507  27163.259078  24906.893962   -895.753776
PC19   9022.892779 -25902.834208   5098.284052    923.472070
PC20  16080.922857 -12462.903663  19098.983423   -834.660918
PC21 -13874.557357  -9150.536728 -22397.729758   -937.102716
PC22  -3497.548933 -24746.683278 -12381.463830   -948.790190
PC23  12798.857678  22293.425249  10877.111419   -965.852238
PC24 -19808.472161    957.299328  19641.763112   -958.745057
PC25  -3886.703999  17149.264413  21664.006945   -879.970019
PC26 -23308.523406 -13713.302399   6949.985705    873.217663
PC27  22922.200967   4112.629915 -15407.907873    570.650292
PC28   5910.477316  14759.221788 -22935.697876    -46.041842
PC29  13864.849131 -17273.580131  16961.945341    424.744502
PC30  26221.295427  -9559.059269    585.698104    475.315175
PC32  13948.974325   9120.824166  22398.010129   -926.447240
PC33  -8913.130275  25952.889470  -5131.435040   -947.697812
PC34 -26009.018435   9992.513455  -1386.548985   -619.325279
PC35  -5998.057105 -14766.678774  22895.777035   -169.059282
PC36   4622.627122 -16819.733023 -21749.449218   -736.486681
PC37  22789.245833  14895.650043  -6066.282906   -863.011167
PC38  -6433.979694  23741.580795 -34214.811030    164.283717
PC39 -18421.018082  28471.263291  24979.276224     32.579457
PC40  -9401.343797  40933.544650   4610.389462    184.242188
PC41   3407.543780  24918.725565  12137.797042   -967.026575
PC42 -16207.484848  11705.062423 -19435.721251   -923.982173
PC43 -14420.048932  17216.918534 -16564.239158   -839.224339
PC44 -22933.813188  -3545.431459  15466.154406    309.152989
PC45 -13031.702808 -22214.959294 -10751.511141    503.812244
PC46  19104.842950  -1959.580724 -20222.010274    160.994741
PJ01 -24848.896614  32178.712114  -6718.779600   -424.461907
PJ02 -25609.979933  22897.561168  29413.019924     -1.054349
PJ03 -34372.745558  20102.489214  -9378.560119     -0.358651
EOF
